{
    "links": {
        "self": "http://www.neowsapp.com/rest/v1/neo/3745902?api_key=iIulBulltgU6a56xZRHN4H3l9WmuAYTsLGpBGhQ2"
    },
    "id": "3745902",
    "neo_reference_id": "3745902",
    "name": "(2016 EP56)",
    "designation": "2016 EP56",
    "nasa_jpl_url": "http://ssd.jpl.nasa.gov/sbdb.cgi?sstr=3745902",
    "absolute_magnitude_h": 24.5,
    "estimated_diameter": {
        "kilometers": {
            "estimated_diameter_min": 0.0334622374,
            "estimated_diameter_max": 0.0748238376
        },
        "meters": {
            "estimated_diameter_min": 33.4622374455,
            "estimated_diameter_max": 74.8238376074
        },
        "miles": {
            "estimated_diameter_min": 0.0207924639,
            "estimated_diameter_max": 0.0464933628
        },
        "feet": {
            "estimated_diameter_min": 109.7842471007,
            "estimated_diameter_max": 245.4850393757
        }
    },
    "is_potentially_hazardous_asteroid": false,
    "close_approach_data": [
        {
            "close_approach_date": "2016-02-28",
            "close_approach_date_full": "2016-Feb-28 19:33",
            "epoch_date_close_approach": 1456687980000,
            "relative_velocity": {
                "kilometers_per_second": "23.7976267191",
                "kilometers_per_hour": "85671.4561887038",
                "miles_per_hour": "53232.9112079199"
            },
            "miss_distance": {
                "astronomical": "0.0357976064",
                "lunar": "13.9252688896",
                "kilometers": "5355245.668538368",
                "miles": "3327595.3557827584"
            },
            "orbiting_body": "Earth"
        },
        {
            "close_approach_date": "2096-08-03",
            "close_approach_date_full": "2096-Aug-03 00:37",
            "epoch_date_close_approach": 3994792620000,
            "relative_velocity": {
                "kilometers_per_second": "18.3401680501",
                "kilometers_per_hour": "66024.6049803928",
                "miles_per_hour": "41025.121911289"
            },
            "miss_distance": {
                "astronomical": "0.1647262803",
                "lunar": "64.0785230367",
                "kilometers": "24642700.665902961",
                "miles": "15312264.1546684218"
            },
            "orbiting_body": "Earth"
        }
    ],
    "orbital_data": {
        "orbit_id": "4",
        "orbit_determination_date": "2017-04-06 08:27:41",
        "first_observation_date": "2016-03-06",
        "last_observation_date": "2016-03-10",
        "data_arc_in_days": 4,
        "observations_used": 9,
        "orbit_uncertainty": "9",
        "minimum_orbit_intersection": ".0213201",
        "jupiter_tisserand_invariant": "4.082",
        "epoch_osculation": "2457454.5",
        "eccentricity": ".7098852573470197",
        "semi_major_axis": "1.570450118807178",
        "inclination": "6.554418219821109",
        "ascending_node_longitude": "327.341821258822",
        "orbital_period": "718.84399143996",
        "perihelion_distance": ".4556107320670867",
        "perihelion_argument": "83.50269184015212",
        "aphelion_distance": "2.685289505547268",
        "perihelion_time": "2457400.120807322246",
        "mean_anomaly": "27.23332127291841",
        "mean_motion": ".5008040747184409",
        "equinox": "J2000",
        "orbit_class": {
            "orbit_class_type": "APO",
            "orbit_class_description": "Near-Earth asteroid orbits which cross the Earth’s orbit similar to that of 1862 Apollo",
            "orbit_class_range": "a (semi-major axis) > 1.0 AU; q (perihelion) < 1.017 AU"
        }
    },
    "is_sentry_object": false
}